{"type":"FeatureCollection","metadata":{"bundle_id":"bundle-025","practice_count":46,"feature_count":46},"features":[{"type":"Feature","properties":{"source_code":"H83028","codes":["H83028"],"label":"ADDINGTON MEDICAL PRACTICE"},"geometry":{"type":"Polygon","coordinates":[[[-0.04978,51.37564],[-0.02253,51.36235],[-0.02266,51.36256],[-0.02226,51.36221],[-0.01682,51.35956],[-0.01705,51.35773],[-0.0167,51.35743],[-0.01648,51.35892],[0.01072,51.3338],[0.03605,51.31194],[0.02435,51.31206],[-0.01751,51.30679],[0.02383,51.31207],[0.01476,51.31216],[0.01348,51.31228],[0.00618,51.31194],[-0.0182,51.30722],[-0.02163,51.30905],[-0.08823,51.36551],[-0.04978,51.37564]],[[-0.01752,51.35394],[-0.01923,51.34026],[-0.01728,51.35352],[-0.01752,51.35394]]]}},{"type":"Feature","properties":{"source_code":"H83014","codes":["H83014"],"label":"QUEENHILL MEDICAL PRACTICE"},"geometry":{"type":"MultiPolygon","coordinates":[[[[-0.10085,51.36977],[-0.09923,51.37286],[-0.08791,51.37496],[-0.07216,51.37536],[-0.07345,51.36351],[-0.06869,51.363],[-0.06452,51.36197],[-0.06355,51.36074],[-0.06065,51.35989],[-0.05562,51.35861],[-0.04745,51.36158],[-0.02991,51.36152],[-0.02816,51.36102],[-0.02776,51.36055],[-0.02648,51.36059],[-0.02299,51.35933],[-0.02213,51.35858],[-0.0206,51.35908],[-0.01812,51.35921],[-0.0179,51.3587],[-0.01736,51.35823],[-0.01637,51.35729],[-0.01606,51.35687],[-0.01531,51.35651],[-0.01379,51.35654],[-0.01388,51.35598],[-0.01303,51.35565],[-0.01161,51.35558],[-0.01053,51.35542],[-0.01004,51.35531],[-0.00973,51.35514],[-0.00967,51.35453],[-0.0097,51.35416],[-0.00976,51.35392],[-0.00969,51.35382],[-0.00933,51.35385],[-0.0083,51.35266],[-0.0045,51.34057],[-0.00161,51.338],[0.00067,51.33403],[-0.00927,51.3316],[-0.03699,51.33801],[-0.03742,51.32868],[-0.03785,51.32026],[-0.03819,51.31076],[-0.04133,51.30792],[-0.04242,51.30675],[-0.0454,51.30714],[-0.05133,51.30789],[-0.05572,51.30901],[-0.05823,51.3112],[-0.06166,51.31419],[-0.06303,51.31761],[-0.07156,51.31199],[-0.0748,51.31278],[-0.07848,51.31453],[-0.08821,51.32117],[-0.09543,51.32598],[-0.09358,51.32771],[-0.08761,51.33111],[-0.0893,51.33143],[-0.08964,51.33194],[-0.08789,51.33761],[-0.09023,51.33803],[-0.0902,51.33783],[-0.09011,51.33766],[-0.09014,51.33719],[-0.09106,51.33599],[-0.09407,51.33707],[-0.09151,51.3355],[-0.08996,51.33109],[-0.09358,51.32771],[-0.09584,51.32642],[-0.09918,51.32782],[-0.10334,51.33023],[-0.10707,51.33186],[-0.11084,51.33346],[-0.11442,51.33706],[-0.11611,51.33939],[-0.09901,51.35166],[-0.09822,51.353],[-0.09794,51.35458],[-0.09783,51.35737],[-0.09648,51.36309],[-0.09636,51.36356],[-0.09703,51.36409],[-0.0964,51.36535],[-0.09634,51.36739],[-0.10085,51.36977]]],[[[-0.08987,51.33117],[-0.08993,51.33099],[-0.08996,51.33109],[-0.08987,51.33117]]],[[[-0.08987,51.33117],[-0.08971,51.33171],[-0.0896,51.33143],[-0.08987,51.33117]]],[[[-0.08971,51.33171],[-0.09002,51.33253],[-0.08964,51.33194],[-0.08971,51.33171]]],[[[-0.09002,51.33253],[-0.09014,51.33271],[-0.0902,51.33301],[-0.09002,51.33253]]],[[[-0.0902,51.33301],[-0.09068,51.33425],[-0.09036,51.33373],[-0.0902,51.33301]]],[[[-0.09082,51.33462],[-0.09068,51.33425],[-0.09158,51.33572],[-0.09082,51.33462]]],[[[-0.09082,51.33462],[-0.09125,51.33574],[-0.09106,51.33599],[-0.09056,51.33581],[-0.09006,51.33352],[-0.09082,51.33462]]]]}},{"type":"Feature","properties":{"source_code":"H83004","codes":["H83004"],"label":"FARLEY ROAD MEDICAL PRACTICE"},"geometry":{"type":"Polygon","coordinates":[[[-0.07356,51.36299],[-0.03734,51.35376],[-0.02712,51.34292],[-0.03914,51.31613],[-0.07068,51.2984],[-0.07719,51.30507],[-0.0813,51.3118],[-0.09291,51.32195],[-0.12102,51.34005],[-0.10188,51.34857],[-0.10094,51.36492],[-0.07356,51.36299]]]}},{"type":"Feature","properties":{"source_code":"H83015","codes":["H83015"],"label":"PARKSIDE GROUP PRACTICE"},"geometry":{"type":"Polygon","coordinates":[[[-0.09622,51.36723],[-0.09338,51.36685],[-0.08995,51.36597],[-0.08669,51.36538],[-0.0836,51.36452],[-0.08304,51.36428],[-0.08205,51.36412],[-0.08102,51.36404],[-0.07798,51.36382],[-0.07849,51.36275],[-0.07896,51.36155],[-0.07746,51.36096],[-0.07733,51.36037],[-0.07772,51.35956],[-0.07944,51.35895],[-0.07781,51.35812],[-0.07579,51.35745],[-0.07369,51.35653],[-0.07287,51.35592],[-0.07047,51.35393],[-0.06978,51.35308],[-0.06914,51.35136],[-0.06901,51.35029],[-0.06815,51.34935],[-0.06789,51.34855],[-0.06523,51.34522],[-0.0639,51.34423],[-0.06287,51.34337],[-0.0636,51.3427],[-0.06472,51.34233],[-0.06536,51.34171],[-0.0663,51.34134],[-0.06811,51.34032],[-0.06909,51.34013],[-0.07025,51.33983],[-0.07158,51.33951],[-0.06965,51.33718],[-0.06733,51.33557],[-0.0642,51.33332],[-0.06356,51.33211],[-0.06785,51.33024],[-0.06896,51.33002],[-0.07167,51.32906],[-0.0763,51.32839],[-0.07909,51.32758],[-0.07978,51.32863],[-0.08021,51.32932],[-0.08034,51.32981],[-0.08197,51.32994],[-0.08274,51.33037],[-0.08399,51.33075],[-0.08527,51.33093],[-0.08596,51.32919],[-0.08716,51.32855],[-0.08768,51.32713],[-0.08836,51.32621],[-0.08986,51.32477],[-0.09197,51.32565],[-0.09386,51.32627],[-0.09677,51.32804],[-0.09806,51.32865],[-0.09986,51.32957],[-0.10192,51.33053],[-0.10416,51.32946],[-0.10647,51.32836],[-0.10793,51.32932],[-0.109,51.33067],[-0.11055,51.33235],[-0.11175,51.33378],[-0.11252,51.33471],[-0.11415,51.3364],[-0.11729,51.33774],[-0.11823,51.33723],[-0.11896,51.33635],[-0.11961,51.33587],[-0.12021,51.3353],[-0.12085,51.33477],[-0.12171,51.33412],[-0.1233,51.33292],[-0.1245,51.3319],[-0.12544,51.33126],[-0.12553,51.33058],[-0.12604,51.33008],[-0.12664,51.32962],[-0.12712,51.32865],[-0.12802,51.32801],[-0.12887,51.32753],[-0.12956,51.32721],[-0.13003,51.32798],[-0.13063,51.32844],[-0.13149,51.32871],[-0.13231,51.32868],[-0.13351,51.329],[-0.13471,51.32922],[-0.13574,51.32994],[-0.13647,51.33032],[-0.13699,51.33064],[-0.13763,51.33099],[-0.13814,51.33131],[-0.1387,51.33246],[-0.13939,51.33351],[-0.14012,51.33469],[-0.14098,51.33533],[-0.14162,51.3364],[-0.14278,51.33737],[-0.14321,51.33825],[-0.14364,51.33895],[-0.14394,51.33973],[-0.14278,51.34],[-0.14184,51.34051],[-0.14042,51.3419],[-0.13737,51.3427],[-0.1348,51.34319],[-0.12862,51.34249],[-0.12669,51.34209],[-0.12471,51.34131],[-0.12334,51.34069],[-0.12265,51.34032],[-0.12098,51.33986],[-0.12411,51.34136],[-0.12501,51.34201],[-0.12574,51.34281],[-0.126,51.34429],[-0.126,51.34479],[-0.12596,51.34501],[-0.12578,51.34575],[-0.1251,51.34575],[-0.12458,51.34568],[-0.12398,51.34576],[-0.12342,51.34576],[-0.12252,51.34587],[-0.12184,51.34596],[-0.12064,51.34592],[-0.11988,51.34607],[-0.11942,51.34606],[-0.11889,51.34587],[-0.11837,51.34572],[-0.11832,51.34552],[-0.11853,51.34533],[-0.11207,51.34598],[-0.10729,51.35046],[-0.1054,51.35649],[-0.1066,51.35987],[-0.10609,51.36216],[-0.10802,51.36244],[-0.108,51.36483],[-0.10721,51.36756],[-0.10184,51.36801],[-0.09622,51.36723]]]}},{"type":"Feature","properties":{"source_code":"H83049","codes":["H83049"],"label":"HEADLEY DRIVE SURGERY"},"geometry":{"type":"Polygon","coordinates":[[[-0.02815,51.34412],[-0.09888,51.3587],[-0.05974,51.37542],[-0.01717,51.37671],[0.023,51.32568],[-0.02815,51.34412]]]}},{"type":"Feature","properties":{"source_code":"H83031","codes":["H83031"],"label":"HALING PARK MEDICAL PRACTICE"},"geometry":{"type":"Polygon","coordinates":[[[-0.10072,51.36787],[-0.10381,51.36782],[-0.10162,51.36771],[-0.10003,51.36744],[-0.10081,51.36795],[-0.09137,51.3664],[-0.08627,51.3651],[-0.08033,51.36408],[-0.07802,51.36382],[-0.07892,51.36144],[-0.07994,51.35976],[-0.07999,51.35956],[-0.07683,51.35772],[-0.0757,51.35742],[-0.07244,51.35565],[-0.07126,51.35447],[-0.06969,51.35356],[-0.06817,51.34908],[-0.06729,51.34734],[-0.06654,51.34664],[-0.04189,51.34981],[-0.04755,51.34809],[-0.05407,51.34734],[-0.06111,51.34445],[-0.06303,51.34334],[-0.06283,51.34316],[-0.06307,51.34332],[-0.06332,51.34318],[-0.06317,51.34305],[-0.06474,51.34236],[-0.06763,51.34069],[-0.07381,51.33812],[-0.08257,51.33437],[-0.08566,51.33115],[-0.08995,51.3305],[-0.09819,51.33029],[-0.10317,51.3304],[-0.11192,51.33404],[-0.11484,51.33662],[-0.11656,51.3393],[-0.11759,51.34005],[-0.11618,51.34023],[-0.11467,51.34455],[-0.11913,51.36556],[-0.11581,51.36781],[-0.1157,51.36816],[-0.11527,51.36817],[-0.11501,51.36835],[-0.11281,51.36824],[-0.11025,51.36832],[-0.10846,51.36804],[-0.10628,51.36793],[-0.10424,51.3684],[-0.10334,51.36835],[-0.10072,51.36787]]]}},{"type":"Feature","properties":{"source_code":"H83007","codes":["H83007"],"label":"VIOLET LANE MEDICAL PRACTICE"},"geometry":{"type":"Polygon","coordinates":[[[-0.12239,51.37347],[-0.12025,51.37403],[-0.11866,51.37454],[-0.1172,51.37489],[-0.11699,51.37508],[-0.11591,51.3754],[-0.11433,51.37575],[-0.11312,51.37612],[-0.11192,51.37641],[-0.11059,51.37668],[-0.10956,51.377],[-0.1087,51.37711],[-0.10789,51.37754],[-0.10703,51.37607],[-0.10652,51.37537],[-0.10587,51.37435],[-0.10553,51.3739],[-0.10386,51.37352],[-0.10205,51.37349],[-0.10029,51.37379],[-0.09798,51.37395],[-0.09604,51.37427],[-0.09265,51.37478],[-0.09137,51.375],[-0.08948,51.37521],[-0.08725,51.3751],[-0.08459,51.37518],[-0.08261,51.37532],[-0.08072,51.37486],[-0.07995,51.37414],[-0.07926,51.37352],[-0.07738,51.37202],[-0.07678,51.37082],[-0.07699,51.36934],[-0.07776,51.36894],[-0.07922,51.36886],[-0.07892,51.36827],[-0.07948,51.3676],[-0.08077,51.36669],[-0.08128,51.36564],[-0.08253,51.36439],[-0.08102,51.36422],[-0.08124,51.36377],[-0.08167,51.36313],[-0.08265,51.36179],[-0.08317,51.36066],[-0.0836,51.3601],[-0.08253,51.35795],[-0.08231,51.35675],[-0.0836,51.35455],[-0.08467,51.35281],[-0.0851,51.35125],[-0.08557,51.35064],[-0.08673,51.34924],[-0.08712,51.3486],[-0.08802,51.34753],[-0.08888,51.34603],[-0.08999,51.34546],[-0.0912,51.34493],[-0.09471,51.34541],[-0.09527,51.34538],[-0.09579,51.34504],[-0.09686,51.34361],[-0.0981,51.34225],[-0.09896,51.34126],[-0.106,51.33933],[-0.10789,51.3397],[-0.11287,51.34002],[-0.11257,51.34023],[-0.11218,51.34029],[-0.11192,51.34069],[-0.11257,51.34023],[-0.1127,51.34021],[-0.11772,51.33975],[-0.11827,51.34219],[-0.11755,51.34351],[-0.11707,51.34445],[-0.11703,51.34694],[-0.11694,51.34895],[-0.11724,51.35131],[-0.11883,51.35278],[-0.11926,51.35404],[-0.11965,51.35557],[-0.12003,51.35694],[-0.12021,51.35785],[-0.12094,51.35916],[-0.12124,51.36045],[-0.12145,51.36157],[-0.12167,51.36361],[-0.12214,51.36591],[-0.12239,51.3683],[-0.12287,51.37036],[-0.12239,51.37347]]]}},{"type":"Feature","properties":{"source_code":"H83627","codes":["H83627"],"label":"BIRDHURST MEDICAL PRACTICE"},"geometry":{"type":"Polygon","coordinates":[[[-0.07437,51.37963],[-0.07445,51.37763],[-0.07483,51.37463],[-0.07461,51.37172],[-0.07371,51.3695],[-0.06914,51.36278],[-0.07754,51.34758],[-0.07852,51.34614],[-0.0795,51.34481],[-0.07888,51.34386],[-0.08203,51.34186],[-0.08438,51.34169],[-0.08741,51.34168],[-0.08624,51.34089],[-0.08781,51.34115],[-0.08907,51.34166],[-0.09202,51.34359],[-0.09347,51.34462],[-0.09527,51.3456],[-0.09903,51.34723],[-0.09815,51.348],[-0.09855,51.34858],[-0.10021,51.34921],[-0.10131,51.3496],[-0.10223,51.34934],[-0.10289,51.34842],[-0.10364,51.3479],[-0.10438,51.34765],[-0.10639,51.34658],[-0.10831,51.34573],[-0.10967,51.34664],[-0.11437,51.34563],[-0.11654,51.35602],[-0.11775,51.36117],[-0.11827,51.36374],[-0.11845,51.36653],[-0.11596,51.36786],[-0.11365,51.3695],[-0.11104,51.37173],[-0.11014,51.37182],[-0.1098,51.37296],[-0.10835,51.37429],[-0.10655,51.37561],[-0.10359,51.37712],[-0.10224,51.37812],[-0.10124,51.37939],[-0.10064,51.38035],[-0.09965,51.38033],[-0.09935,51.38105],[-0.09916,51.38188],[-0.09871,51.38276],[-0.08652,51.38025],[-0.07948,51.37885],[-0.07639,51.37869],[-0.07437,51.37963]]]}},{"type":"Feature","properties":{"source_code":"H83030","codes":["H83030"],"label":"BROOM ROAD MEDICAL PRACTICE"},"geometry":{"type":"Polygon","coordinates":[[[-0.02163,51.36578],[-0.04214,51.36181],[-0.05553,51.37387],[-0.043,51.37896],[-0.03843,51.38118],[-0.01502,51.38458],[-0.00824,51.37542],[-0.02163,51.36578]]]}},{"type":"Feature","properties":{"source_code":"G84017","codes":["G84017"],"label":"ADDINGTON ROAD SURGERY"},"geometry":{"type":"Polygon","coordinates":[[[0.00644,51.4029],[0.01154,51.40041],[0.01983,51.39969],[0.02029,51.39853],[0.02178,51.39748],[0.02246,51.3971],[0.02382,51.3965],[0.02875,51.3938],[0.03386,51.39066],[0.03716,51.38678],[0.04382,51.3766],[0.04594,51.37141],[0.04785,51.37027],[0.04855,51.36934],[0.05098,51.36685],[0.04579,51.36026],[0.04028,51.3575],[0.03808,51.35505],[0.03545,51.35276],[0.03814,51.35014],[0.038,51.3478],[0.03515,51.34461],[0.03061,51.34658],[0.0222,51.3478],[0.01363,51.35021],[0.00578,51.35403],[-0.00404,51.35572],[-0.01257,51.35779],[-0.02708,51.36373],[-0.02506,51.37181],[-0.03108,51.37158],[-0.03147,51.36956],[-0.04463,51.36945],[-0.04629,51.37356],[-0.04549,51.37528],[-0.0379,51.37686],[-0.02851,51.37733],[-0.02774,51.38128],[-0.02409,51.3871],[-0.02309,51.39206],[-0.02214,51.39546],[-0.01802,51.40016],[-0.01991,51.40665],[-0.01605,51.40649],[-0.01133,51.40665],[-0.0073,51.40678],[-0.0036,51.40767],[0.00249,51.40579],[0.00644,51.4029]]]}},{"type":"Feature","properties":{"source_code":"H83019","codes":["H83019"],"label":"FRIENDS ROAD MEDICAL PRACTICE"},"geometry":{"type":"Polygon","coordinates":[[[-0.10703,51.37545],[-0.108,51.37693],[-0.10844,51.37754],[-0.10913,51.37804],[-0.11304,51.38073],[-0.10759,51.3831],[-0.10428,51.38397],[-0.08858,51.38062],[-0.0883,51.38231],[-0.08776,51.38381],[-0.08682,51.38465],[-0.08562,51.38533],[-0.08304,51.38654],[-0.0806,51.38807],[-0.07832,51.3897],[-0.07708,51.38892],[-0.07668,51.38811],[-0.07645,51.38685],[-0.07601,51.38582],[-0.0748,51.38499],[-0.07417,51.38523],[-0.07319,51.38543],[-0.07175,51.3856],[-0.07102,51.38466],[-0.06963,51.38349],[-0.06849,51.38228],[-0.06754,51.38245],[-0.06675,51.38283],[-0.0651,51.38365],[-0.06331,51.3817],[-0.06263,51.38001],[-0.06169,51.37857],[-0.06007,51.37635],[-0.05793,51.37533],[-0.05622,51.37379],[-0.05577,51.37252],[-0.05283,51.37167],[-0.04883,51.37067],[-0.04678,51.37009],[-0.04474,51.3695],[-0.04108,51.36759],[-0.04007,51.36692],[-0.03913,51.36592],[-0.03712,51.36495],[-0.03445,51.36404],[-0.03109,51.36264],[-0.03072,51.36195],[-0.03092,51.36133],[-0.03173,51.36042],[-0.03131,51.35932],[-0.03073,51.35849],[-0.03094,51.35731],[-0.03176,51.34938],[-0.03515,51.34782],[-0.03478,51.34629],[-0.03527,51.34303],[-0.03605,51.34072],[-0.03636,51.33933],[-0.03762,51.33864],[-0.05227,51.33584],[-0.05521,51.33772],[-0.05801,51.33936],[-0.06062,51.34125],[-0.06272,51.3433],[-0.06522,51.34179],[-0.06781,51.34044],[-0.06958,51.33996],[-0.07298,51.33905],[-0.07505,51.33737],[-0.07729,51.33622],[-0.07997,51.33523],[-0.08119,51.33484],[-0.08257,51.33387],[-0.08465,51.33278],[-0.08579,51.33096],[-0.08919,51.33054],[-0.0925,51.33009],[-0.09618,51.33004],[-0.09772,51.3301],[-0.09935,51.33037],[-0.10046,51.33053],[-0.10152,51.33068],[-0.10267,51.3307],[-0.10344,51.33054],[-0.1043,51.3307],[-0.11289,51.33518],[-0.11345,51.33591],[-0.1147,51.3368],[-0.1169,51.33831],[-0.11752,51.33984],[-0.11402,51.34274],[-0.11375,51.34403],[-0.11369,51.34514],[-0.11356,51.3453],[-0.11385,51.34573],[-0.1096,51.35858],[-0.10976,51.35911],[-0.11017,51.36073],[-0.11008,51.36267],[-0.11011,51.36343],[-0.1098,51.3643],[-0.10936,51.36476],[-0.10849,51.36547],[-0.10825,51.36663],[-0.10767,51.36784],[-0.11074,51.36836],[-0.11307,51.36837],[-0.11553,51.368],[-0.10703,51.37545]]]}},{"type":"Feature","properties":{"source_code":"H83029","codes":["H83029"],"label":"HARTLAND WAY SURGERY"},"geometry":{"type":"Polygon","coordinates":[[[-0.0357,51.37355],[-0.03534,51.37145],[-0.03533,51.36981],[-0.036,51.36977],[-0.04171,51.36921],[-0.05102,51.3721],[-0.05374,51.37286],[-0.05619,51.37399],[-0.05784,51.37553],[-0.05793,51.37773],[-0.05744,51.37825],[-0.05612,51.37842],[-0.0539,51.37899],[-0.05467,51.38017],[-0.05546,51.38207],[-0.05398,51.38275],[-0.0531,51.38312],[-0.05258,51.38323],[-0.04855,51.3853],[-0.04526,51.38732],[-0.04112,51.38897],[-0.0396,51.38868],[-0.03977,51.38851],[-0.03993,51.38831],[-0.03996,51.38832],[-0.04048,51.38817],[-0.04023,51.38787],[-0.04022,51.38804],[-0.04011,51.38811],[-0.04015,51.38819],[-0.03997,51.38826],[-0.03993,51.38831],[-0.03928,51.38815],[-0.03858,51.38818],[-0.0374,51.38792],[-0.03756,51.38695],[-0.0373,51.38317],[-0.0357,51.37355]]]}},{"type":"Feature","properties":{"source_code":"H83044","codes":["H83044"],"label":"EAST CROYDON MEDICAL CENTRE"},"geometry":{"type":"Polygon","coordinates":[[[-0.09871,51.3829],[-0.0943,51.3819],[-0.09268,51.38505],[-0.08612,51.38459],[-0.08299,51.38611],[-0.08092,51.38483],[-0.08003,51.383],[-0.0788,51.38357],[-0.07669,51.38407],[-0.075,51.385],[-0.07266,51.38552],[-0.07107,51.38676],[-0.06905,51.38774],[-0.06552,51.38958],[-0.06455,51.38742],[-0.06255,51.38606],[-0.05755,51.38405],[-0.054,51.3811],[-0.05075,51.38185],[-0.0433,51.37842],[-0.04622,51.37422],[-0.04583,51.37253],[-0.04472,51.36953],[-0.05553,51.37245],[-0.05068,51.36235],[-0.05515,51.35897],[-0.06142,51.35747],[-0.06242,51.35582],[-0.06557,51.3554],[-0.06893,51.35512],[-0.07272,51.35596],[-0.07749,51.35694],[-0.0815,51.35777],[-0.08566,51.35913],[-0.08454,51.3554],[-0.08771,51.35311],[-0.08897,51.35448],[-0.09075,51.35548],[-0.09448,51.357],[-0.09471,51.35545],[-0.09535,51.3532],[-0.09823,51.35278],[-0.09989,51.35314],[-0.10161,51.35374],[-0.10196,51.35445],[-0.10215,51.35532],[-0.10379,51.35528],[-0.10542,51.35548],[-0.10535,51.35657],[-0.10574,51.35766],[-0.10636,51.35876],[-0.10671,51.35991],[-0.10614,51.36243],[-0.10575,51.36418],[-0.10425,51.36463],[-0.10248,51.36542],[-0.10143,51.36669],[-0.10228,51.3674],[-0.10296,51.36817],[-0.10024,51.36772],[-0.09913,51.36768],[-0.09639,51.36717],[-0.09682,51.3693],[-0.09682,51.37143],[-0.09661,51.37323],[-0.0977,51.37524],[-0.10004,51.37903],[-0.09871,51.3829]]]}},{"type":"Feature","properties":{"source_code":"H83043","codes":["H83043"],"label":"SHIRLEY MEDICAL CENTRE"},"geometry":{"type":"MultiPolygon","coordinates":[[[[-0.0419,51.35972],[-0.03146,51.35984],[-0.03073,51.3587],[-0.03219,51.35812],[-0.04098,51.35857],[-0.04086,51.35919],[-0.04176,51.35967],[-0.0419,51.35972]]],[[[-0.03155,51.36495],[-0.03214,51.36573],[-0.03159,51.36956],[-0.03155,51.36495]]],[[[-0.05116,51.3635],[-0.05122,51.36362],[-0.05163,51.36302],[-0.05116,51.3635],[-0.04575,51.36066],[-0.04612,51.36049],[-0.04558,51.36063],[-0.04454,51.36049],[-0.04553,51.36074],[-0.05103,51.36347],[-0.03789,51.36626],[-0.03167,51.36272],[-0.0315,51.3601],[-0.03155,51.36495],[-0.0312,51.36449],[-0.03081,51.36262],[-0.03141,51.36085],[-0.0315,51.35988],[-0.0315,51.36007],[-0.04184,51.3598],[-0.04292,51.36007],[-0.0419,51.35972],[-0.04782,51.35965],[-0.04763,51.35977],[-0.04785,51.35967],[-0.05489,51.3597],[-0.05292,51.36171],[-0.05521,51.35956],[-0.04782,51.35965],[-0.04862,51.35911],[-0.0533,51.35892],[-0.0554,51.35956],[-0.05522,51.35956],[-0.05296,51.3672],[-0.05296,51.36696],[-0.05283,51.36674],[-0.05253,51.36564],[-0.05193,51.36471],[-0.05129,51.36377],[-0.0527,51.36672],[-0.04739,51.36831],[-0.05274,51.36682],[-0.05193,51.36985],[-0.04789,51.37025],[-0.04622,51.36972],[-0.04561,51.36965],[-0.04605,51.36974],[-0.04665,51.36993],[-0.04716,51.37007],[-0.04807,51.37031],[-0.05317,51.36977],[-0.04884,51.37116],[-0.04889,51.37125],[-0.05176,51.37028],[-0.05184,51.37066],[-0.05098,51.37398],[-0.05021,51.37414],[-0.04963,51.37301],[-0.04991,51.37376],[-0.04998,51.37395],[-0.05011,51.37426],[-0.05043,51.37435],[-0.05081,51.37427],[-0.05111,51.37438],[-0.05128,51.37457],[-0.05124,51.37505],[-0.05137,51.37545],[-0.05197,51.37639],[-0.05257,51.37727],[-0.05313,51.37832],[-0.05318,51.37845],[-0.05326,51.37858],[-0.05357,51.37914],[-0.05382,51.37944],[-0.05412,51.37984],[-0.05485,51.38043],[-0.05515,51.38081],[-0.05558,51.38118],[-0.05583,51.38142],[-0.05613,51.38164],[-0.05618,51.38188],[-0.05562,51.3822],[-0.0551,51.38239],[-0.05463,51.38263],[-0.0539,51.38292],[-0.0533,51.38319],[-0.05287,51.38314],[-0.05236,51.38335],[-0.0524,51.38432],[-0.0524,51.3852],[-0.05257,51.38558],[-0.05279,51.386],[-0.05283,51.38638],[-0.05274,51.38686],[-0.0527,51.38732],[-0.05279,51.38772],[-0.05317,51.38796],[-0.05356,51.38817],[-0.0536,51.38844],[-0.05352,51.38876],[-0.05352,51.38908],[-0.05375,51.38921],[-0.05408,51.38928],[-0.05459,51.3893],[-0.0551,51.38932],[-0.05553,51.38949],[-0.05578,51.38964],[-0.05592,51.38967],[-0.05556,51.38989],[-0.05553,51.38991],[-0.05502,51.39029],[-0.0545,51.39066],[-0.05403,51.39093],[-0.05352,51.3912],[-0.053,51.39152],[-0.05274,51.39176],[-0.05276,51.39176],[-0.0526,51.39197],[-0.05244,51.3923],[-0.05214,51.3927],[-0.05201,51.39318],[-0.05184,51.39377],[-0.05163,51.39396],[-0.05094,51.39398],[-0.0503,51.39401],[-0.04952,51.39401],[-0.04867,51.39393],[-0.04785,51.39374],[-0.04686,51.39374],[-0.04425,51.3935],[-0.0436,51.3935],[-0.04279,51.39348],[-0.04201,51.39345],[-0.04167,51.39327],[-0.04141,51.39325],[-0.03995,51.39188],[-0.04001,51.39188],[-0.04,51.39187],[-0.03988,51.39188],[-0.03991,51.39192],[-0.03803,51.39198],[-0.03656,51.39206],[-0.03654,51.39203],[-0.03639,51.39203],[-0.03596,51.39074],[-0.03605,51.39014],[-0.03605,51.3901],[-0.03607,51.39003],[-0.03622,51.389],[-0.0363,51.38898],[-0.03656,51.38882],[-0.03695,51.38874],[-0.03739,51.38864],[-0.03753,51.38836],[-0.03751,51.38828],[-0.03739,51.38809],[-0.03712,51.38791],[-0.03691,51.38764],[-0.03692,51.3875],[-0.03686,51.38785],[-0.03715,51.3843],[-0.03716,51.38421],[-0.03717,51.38415],[-0.03747,51.38052],[-0.03371,51.37753],[-0.03309,51.37709],[-0.0288,51.3773],[-0.02894,51.37716],[-0.02884,51.37711],[-0.02905,51.37682],[-0.02953,51.37636],[-0.03021,51.37569],[-0.03064,51.3754],[-0.03081,51.3751],[-0.03081,51.37459],[-0.03081,51.37382],[-0.03073,51.37274],[-0.03094,51.3725],[-0.03197,51.3724],[-0.03283,51.37229],[-0.03382,51.37229],[-0.03519,51.37216],[-0.03652,51.37208],[-0.03819,51.37186],[-0.03901,51.37181],[-0.03978,51.37178],[-0.04043,51.37154],[-0.04107,51.37135],[-0.04137,51.37127],[-0.03631,51.37199],[-0.03219,51.36942],[-0.04317,51.36969],[-0.04158,51.3712],[-0.0418,51.37114],[-0.04244,51.37084],[-0.043,51.37071],[-0.04326,51.37052],[-0.04309,51.36985],[-0.0433,51.37036],[-0.04327,51.36988],[-0.04322,51.36972],[-0.04326,51.36971],[-0.04326,51.36964],[-0.04373,51.36948],[-0.04413,51.3695],[-0.04414,51.3695],[-0.04363,51.36944],[-0.04334,51.36953],[-0.03781,51.36631],[-0.05116,51.3635]]]]}},{"type":"Feature","properties":{"source_code":"G84607","codes":["G84607"],"label":"WICKHAM PARK SURGERY"},"geometry":{"type":"Polygon","coordinates":[[[-0.06437,51.38287],[-0.06524,51.38355],[-0.06454,51.38414],[-0.06436,51.38449],[-0.06306,51.38572],[-0.0626,51.38604],[-0.06129,51.38705],[-0.06002,51.3875],[-0.0574,51.38883],[-0.0561,51.38971],[-0.05446,51.39069],[-0.05296,51.39161],[-0.05217,51.39254],[-0.05186,51.39333],[-0.0518,51.39415],[-0.0516,51.39443],[-0.05012,51.39546],[-0.04944,51.39648],[-0.04905,51.39666],[-0.04842,51.39687],[-0.04811,51.39716],[-0.048,51.39763],[-0.0478,51.39789],[-0.04753,51.39797],[-0.04693,51.39825],[-0.04582,51.39859],[-0.04503,51.39869],[-0.04427,51.39888],[-0.04358,51.39907],[-0.04298,51.39929],[-0.04253,51.39918],[-0.04205,51.399],[-0.04172,51.39903],[-0.04104,51.39922],[-0.04032,51.39986],[-0.03949,51.40066],[-0.03857,51.40161],[-0.03786,51.40223],[-0.03721,51.40266],[-0.03597,51.40342],[-0.03495,51.40412],[-0.03398,51.40482],[-0.03383,51.40557],[-0.03356,51.40596],[-0.0329,51.40643],[-0.03213,51.40692],[-0.0293,51.4065],[-0.02814,51.40684],[-0.02788,51.40727],[-0.02764,51.40762],[-0.02678,51.40771],[-0.02558,51.40774],[-0.02245,51.40735],[-0.02025,51.4073],[-0.01795,51.40714],[-0.01712,51.40703],[-0.01603,51.40664],[-0.01513,51.40637],[-0.01423,51.40631],[-0.01345,51.40637],[-0.01148,51.40674],[-0.00926,51.4067],[-0.00861,51.40674],[-0.00781,51.40674],[-0.00643,51.40703],[-0.00506,51.4073],[-0.00359,51.40761],[-0.00225,51.40697],[-0.00062,51.4066],[0.00139,51.40627],[0.00105,51.40565],[0.0038,51.40338],[0.00464,51.40287],[0.00621,51.4019],[0.00879,51.40074],[0.01021,51.40003],[0.01111,51.39932],[0.01337,51.3979],[0.01353,51.39771],[0.01506,51.39859],[0.01518,51.39842],[0.01476,51.39648],[0.01566,51.39583],[0.01658,51.39338],[0.01791,51.39207],[0.0175,51.39161],[0.01735,51.39108],[0.01742,51.39045],[0.01747,51.38943],[0.01751,51.38806],[0.01755,51.38675],[0.01777,51.38624],[0.01776,51.38571],[0.01762,51.38507],[0.01723,51.38433],[0.01714,51.3834],[0.01717,51.3826],[0.01777,51.38147],[0.01798,51.38055],[0.01836,51.37944],[0.01773,51.3785],[0.01769,51.37764],[0.01737,51.37702],[0.01871,51.37572],[0.02008,51.3743],[0.0208,51.37314],[0.02298,51.37117],[0.02393,51.3699],[0.02475,51.36841],[0.02495,51.3676],[0.02311,51.36752],[0.02054,51.36737],[0.01858,51.36731],[0.01703,51.36742],[0.01215,51.36886],[0.01145,51.36908],[0.01017,51.3695],[0.00732,51.36967],[0.00664,51.36994],[0.00596,51.37028],[0.00506,51.37058],[0.00384,51.37047],[0.00281,51.37019],[0.00209,51.37],[0.00124,51.3698],[0.00052,51.36999],[-0.00137,51.37114],[-0.00288,51.37011],[-0.00467,51.36903],[-0.00568,51.36829],[-0.00913,51.36706],[-0.01272,51.36576],[-0.01662,51.36431],[-0.01953,51.36372],[-0.02123,51.36302],[-0.0252,51.36088],[-0.02628,51.35983],[-0.02707,51.35938],[-0.02752,51.35901],[-0.02918,51.35826],[-0.03084,51.35754],[-0.03144,51.3576],[-0.03193,51.35775],[-0.03234,51.35824],[-0.03081,51.35859],[-0.03127,51.3593],[-0.03155,51.36025],[-0.03146,51.3607],[-0.03085,51.36177],[-0.03093,51.36254],[-0.032,51.36312],[-0.03346,51.36374],[-0.03649,51.36478],[-0.03769,51.36517],[-0.03888,51.36586],[-0.03968,51.36643],[-0.03998,51.36688],[-0.0406,51.36722],[-0.0426,51.36838],[-0.04489,51.36957],[-0.0481,51.37043],[-0.05572,51.37252],[-0.05602,51.37318],[-0.05634,51.37355],[-0.05665,51.37387],[-0.05711,51.37462],[-0.05799,51.37534],[-0.06005,51.37626],[-0.06015,51.37652],[-0.06106,51.37784],[-0.06206,51.37908],[-0.06289,51.38065],[-0.06301,51.38127],[-0.0635,51.3821],[-0.06437,51.38287]]]}},{"type":"Feature","properties":{"source_code":"G84015","codes":["G84015"],"label":"STATION ROAD SURGERY"},"geometry":{"type":"Polygon","coordinates":[[[-0.03682,51.37676],[-0.03626,51.37864],[-0.03708,51.37963],[-0.03613,51.38895],[-0.04201,51.38962],[-0.0445,51.39104],[-0.04562,51.39257],[-0.04549,51.39307],[-0.0418,51.39281],[-0.04111,51.39305],[-0.0409,51.39286],[-0.03562,51.39262],[-0.03489,51.39709],[-0.03124,51.39594],[-0.02871,51.39669],[-0.02335,51.39803],[-0.01893,51.3991],[-0.0182,51.39918],[-0.01429,51.39945],[-0.01039,51.39905],[-0.0085,51.39926],[-0.00485,51.39736],[-0.00313,51.39538],[0.00017,51.39203],[0.00266,51.38825],[0.0027,51.38413],[0.00386,51.38241],[0.00502,51.38175],[0.00459,51.38065],[0.00618,51.37931],[0.00403,51.37783],[0.00429,51.37711],[0.00343,51.37607],[0.00206,51.37489],[0.00206,51.37408],[0.00403,51.37044],[0.00524,51.37066],[0.0073,51.36961],[0.01004,51.36964],[0.01378,51.36843],[0.01219,51.36779],[0.0133,51.3668],[0.01648,51.36578],[0.00296,51.36079],[-0.00103,51.36189],[-0.0021,51.36406],[-0.00391,51.36701],[-0.00575,51.36811],[-0.00781,51.37033],[-0.01802,51.36765],[-0.02369,51.36516],[-0.02343,51.37175],[-0.0309,51.37157],[-0.03064,51.37264],[-0.03618,51.37199],[-0.03648,51.37398],[-0.03716,51.37384],[-0.03708,51.37475],[-0.03682,51.37676]]]}},{"type":"Feature","properties":{"source_code":"G84030","codes":["G84030"],"label":"FORGE CLOSE SURGERY"},"geometry":{"type":"Polygon","coordinates":[[[0.00144,51.40625],[0.00127,51.40563],[0.00448,51.40307],[0.01062,51.39977],[0.01358,51.39777],[0.01564,51.39879],[0.01826,51.39826],[0.01725,51.39921],[0.02051,51.39813],[0.02142,51.39761],[0.02213,51.39747],[0.02726,51.3943],[0.03476,51.39005],[0.03669,51.38726],[0.04579,51.37516],[0.04614,51.37197],[0.04817,51.37006],[0.05253,51.36651],[0.05194,51.3665],[0.05196,51.36647],[0.05219,51.36648],[0.05215,51.36629],[0.05219,51.36626],[0.05215,51.36629],[0.04918,51.35072],[0.05892,51.34447],[0.05622,51.3416],[0.05879,51.3408],[0.05888,51.34005],[0.05347,51.33785],[0.03669,51.34764],[0.03296,51.3441],[0.02691,51.35506],[0.02013,51.35946],[0.01618,51.35683],[0.00687,51.35412],[0.00425,51.36023],[-0.00059,51.36197],[-0.00193,51.36325],[-0.00208,51.36409],[-0.00286,51.36506],[-0.00211,51.36237],[-0.00662,51.36806],[-0.01655,51.36877],[-0.01697,51.36811],[-0.0216,51.36625],[-0.02231,51.36698],[-0.02243,51.36788],[-0.02244,51.36799],[-0.02246,51.36815],[-0.02248,51.36831],[-0.02255,51.36867],[-0.02265,51.36916],[-0.02273,51.36967],[-0.02283,51.37025],[-0.02284,51.37111],[-0.02251,51.37199],[-0.02285,51.37221],[-0.02313,51.37293],[-0.02338,51.37389],[-0.02372,51.37471],[-0.02388,51.37512],[-0.02438,51.37518],[-0.02468,51.37588],[-0.02513,51.37686],[-0.02534,51.37745],[-0.02616,51.3773],[-0.02724,51.3773],[-0.02871,51.37726],[-0.02779,51.37995],[-0.02573,51.38424],[-0.02423,51.38643],[-0.02375,51.38681],[-0.02341,51.39041],[-0.02322,51.3938],[-0.0229,51.39502],[-0.02013,51.39709],[-0.01809,51.399],[-0.01817,51.40121],[-0.01983,51.4057],[-0.01955,51.40634],[-0.01989,51.40694],[-0.02015,51.40718],[-0.01777,51.40705],[-0.01442,51.40623],[-0.01169,51.40666],[-0.00601,51.4071],[-0.00348,51.40756],[-0.00026,51.40654],[0.00144,51.40625]],[[-0.0029,51.3652],[-0.00289,51.36518],[0.05193,51.36647],[0.05191,51.3665],[-0.0029,51.3652]]]}},{"type":"Feature","properties":{"source_code":"G84033","codes":["G84033"],"label":"PICKHURST SURGERY"},"geometry":{"type":"Polygon","coordinates":[[[0.04154,51.37735],[0.04,51.37542],[0.03948,51.37462],[0.03948,51.3736],[0.03931,51.37087],[0.03905,51.36859],[0.03884,51.36729],[0.03727,51.36742],[0.03553,51.36771],[0.03086,51.36731],[0.02817,51.36778],[0.02532,51.3676],[0.02064,51.36733],[0.01762,51.36741],[0.01645,51.36761],[0.01433,51.36835],[0.00931,51.36969],[0.00672,51.36999],[0.00489,51.3706],[0.00133,51.36991],[-0.00223,51.37157],[-0.00669,51.37349],[-0.01004,51.37505],[-0.01219,51.37558],[-0.01451,51.37588],[-0.01425,51.37944],[-0.01734,51.38153],[-0.0182,51.38276],[-0.02094,51.38458],[-0.02395,51.38651],[-0.02335,51.38823],[-0.02335,51.39061],[-0.02335,51.39165],[-0.02369,51.39412],[-0.02163,51.39653],[-0.01845,51.39888],[-0.01468,51.39974],[-0.01279,51.39934],[-0.01116,51.39921],[-0.00953,51.3991],[-0.00502,51.40033],[-0.0027,51.40242],[-0.00049,51.40345],[0.00086,51.40475],[0.00094,51.40531],[0.00133,51.40614],[0.00146,51.40571],[0.00202,51.40515],[0.01343,51.39768],[0.01539,51.39866],[0.01725,51.3991],[0.01837,51.39915],[0.01888,51.39894],[0.02013,51.39832],[0.02403,51.39685],[0.02712,51.39449],[0.0315,51.39222],[0.03519,51.38946],[0.03768,51.38667],[0.03948,51.38362],[0.04189,51.38035],[0.04283,51.37907],[0.0424,51.37842],[0.04154,51.37735]]]}},{"type":"Feature","properties":{"source_code":"H83039","codes":["H83039"],"label":"STOVELL HOUSE SURGERY"},"geometry":{"type":"MultiPolygon","coordinates":[[[[-0.0713,51.37779],[-0.07144,51.37771],[-0.07141,51.37783],[-0.0713,51.37779]]],[[[-0.06727,51.37808],[-0.06729,51.37805],[-0.06729,51.37808],[-0.06727,51.37808]]],[[[-0.06775,51.37865],[-0.0677,51.37865],[-0.06776,51.37861],[-0.06775,51.37865]]],[[[-0.07805,51.38285],[-0.07798,51.38303],[-0.0772,51.38319],[-0.07805,51.38285]]],[[[-0.06374,51.37898],[-0.06337,51.37936],[-0.06466,51.37972],[-0.06457,51.3795],[-0.06377,51.37942],[-0.06446,51.37919],[-0.06439,51.37902],[-0.06487,51.37905],[-0.06489,51.37904],[-0.06436,51.37894],[-0.06439,51.37902],[-0.06374,51.37898],[-0.0642,51.3785],[-0.06433,51.37885],[-0.06521,51.37848],[-0.0653,51.37827],[-0.06184,51.37896],[-0.06017,51.37641],[-0.06382,51.37558],[-0.06605,51.37508],[-0.06828,51.37449],[-0.07107,51.37419],[-0.07296,51.37419],[-0.07489,51.37475],[-0.07725,51.37516],[-0.08021,51.37516],[-0.08068,51.37511],[-0.0806,51.37521],[-0.0758,51.37617],[-0.07686,51.37617],[-0.07733,51.37607],[-0.07768,51.37623],[-0.07775,51.3765],[-0.07787,51.37651],[-0.07798,51.37609],[-0.07836,51.37575],[-0.07909,51.37636],[-0.07909,51.3758],[-0.07961,51.37639],[-0.07965,51.3758],[-0.08047,51.37617],[-0.08004,51.3755],[-0.08064,51.37553],[-0.08074,51.37554],[-0.08077,51.37513],[-0.08191,51.37505],[-0.08125,51.37503],[-0.08124,51.37505],[-0.08068,51.37511],[-0.08137,51.37427],[-0.08167,51.37368],[-0.08111,51.37502],[-0.0818,51.37371],[-0.08125,51.37502],[-0.08206,51.37504],[-0.08308,51.37497],[-0.08484,51.37513],[-0.0848,51.37515],[-0.08489,51.37516],[-0.08479,51.37516],[-0.08478,51.37516],[-0.08598,51.37521],[-0.08718,51.37513],[-0.0878,51.37505],[-0.08845,51.37679],[-0.08772,51.37688],[-0.0868,51.37702],[-0.08553,51.37722],[-0.08572,51.37803],[-0.08576,51.37805],[-0.08555,51.37722],[-0.08841,51.37929],[-0.08831,51.37926],[-0.08682,51.38035],[-0.08613,51.38038],[-0.08308,51.38177],[-0.08158,51.38247],[-0.08021,51.3829],[-0.07832,51.38343],[-0.07755,51.38363],[-0.07626,51.38405],[-0.07493,51.38499],[-0.07416,51.3852],[-0.0718,51.38574],[-0.07068,51.38686],[-0.07021,51.38716],[-0.06896,51.38756],[-0.06579,51.38951],[-0.06493,51.38852],[-0.06467,51.3875],[-0.06304,51.38595],[-0.06476,51.38391],[-0.06519,51.38349],[-0.06317,51.38177],[-0.06279,51.38014],[-0.06193,51.37896],[-0.0631,51.37929],[-0.06261,51.37891],[-0.06374,51.37898]]],[[[-0.06468,51.37973],[-0.0662,51.38015],[-0.06616,51.38005],[-0.06545,51.3799],[-0.06604,51.37973],[-0.06601,51.37963],[-0.06477,51.37952],[-0.06468,51.37973]]],[[[-0.08627,51.37966],[-0.08734,51.37934],[-0.08759,51.37917],[-0.08623,51.3796],[-0.08627,51.37966],[-0.0861,51.37971],[-0.08624,51.38009],[-0.08831,51.37926],[-0.08789,51.37912],[-0.08811,51.37923],[-0.08698,51.37972],[-0.08686,51.37979],[-0.08647,51.37998],[-0.08627,51.37966]]],[[[-0.06775,51.37865],[-0.0687,51.37862],[-0.06915,51.37877],[-0.06954,51.37864],[-0.06936,51.3786],[-0.06951,51.37859],[-0.06958,51.37863],[-0.06971,51.37859],[-0.06951,51.37859],[-0.06846,51.37804],[-0.06799,51.37813],[-0.06844,51.37803],[-0.06802,51.37781],[-0.06891,51.37792],[-0.07015,51.37765],[-0.07004,51.37733],[-0.07062,51.37754],[-0.07151,51.37735],[-0.07158,51.37701],[-0.06681,51.37797],[-0.06727,51.37808],[-0.06721,51.37814],[-0.06673,51.37798],[-0.06611,51.37811],[-0.06692,51.37833],[-0.06708,51.3783],[-0.06721,51.37814],[-0.06728,51.37816],[-0.06727,51.37826],[-0.06748,51.37822],[-0.06728,51.37816],[-0.06729,51.37808],[-0.06769,51.37818],[-0.06799,51.37813],[-0.06771,51.37819],[-0.06936,51.3786],[-0.0687,51.37862],[-0.06751,51.37823],[-0.06726,51.37829],[-0.06725,51.37842],[-0.06703,51.37836],[-0.06704,51.37834],[-0.067,51.37835],[-0.06703,51.37836],[-0.06682,51.3786],[-0.06681,51.37867],[-0.0677,51.37865],[-0.06716,51.37901],[-0.06679,51.37886],[-0.06677,51.37896],[-0.06719,51.37919],[-0.0676,51.37921],[-0.06775,51.37865]]],[[[-0.06592,51.37875],[-0.06609,51.37811],[-0.06548,51.37823],[-0.06552,51.37835],[-0.06566,51.37829],[-0.06592,51.37875]]],[[[-0.07144,51.37771],[-0.0715,51.3774],[-0.07076,51.37759],[-0.0713,51.37779],[-0.07028,51.37841],[-0.07055,51.37832],[-0.07251,51.3777],[-0.07304,51.3777],[-0.07377,51.3773],[-0.07251,51.3777],[-0.07248,51.3777],[-0.07248,51.37722],[-0.07313,51.37674],[-0.07355,51.37662],[-0.07213,51.3769],[-0.07266,51.37706],[-0.07255,51.37711],[-0.07257,51.37711],[-0.07255,51.37712],[-0.07171,51.37754],[-0.07144,51.37771]]],[[[-0.08459,51.37532],[-0.0857,51.37802],[-0.08571,51.37803],[-0.08472,51.3752],[-0.08431,51.37544],[-0.08459,51.37532]]],[[[-0.0703,51.3781],[-0.07017,51.37772],[-0.06902,51.37794],[-0.0703,51.3781]]],[[[-0.08549,51.3803],[-0.0844,51.38071],[-0.08403,51.38094],[-0.07771,51.38336],[-0.07798,51.38344],[-0.08591,51.38023],[-0.08526,51.38019],[-0.08511,51.38028],[-0.08549,51.3803]]],[[[-0.07805,51.38285],[-0.07816,51.38256],[-0.07723,51.38289],[-0.07689,51.38314],[-0.07769,51.38336],[-0.07835,51.38301],[-0.07772,51.38325],[-0.07879,51.38278],[-0.0806,51.38183],[-0.07938,51.38232],[-0.07836,51.38295],[-0.07834,51.38274],[-0.07805,51.38285]]],[[[-0.07828,51.38222],[-0.07828,51.38215],[-0.07733,51.38283],[-0.07822,51.38238],[-0.07828,51.38222]]],[[[-0.07688,51.38313],[-0.07736,51.3824],[-0.07706,51.38252],[-0.07631,51.38297],[-0.07688,51.38313]]],[[[-0.0757,51.38268],[-0.076,51.38246],[-0.07541,51.38272],[-0.07611,51.38292],[-0.07611,51.38292],[-0.0757,51.38268]]],[[[-0.07535,51.3827],[-0.07674,51.38171],[-0.07684,51.38157],[-0.07683,51.3814],[-0.07572,51.38183],[-0.07514,51.38236],[-0.07508,51.38208],[-0.07489,51.38215],[-0.07506,51.38199],[-0.07504,51.38186],[-0.07404,51.38234],[-0.07535,51.3827]]],[[[-0.07402,51.38233],[-0.075,51.38169],[-0.07489,51.38115],[-0.07321,51.38204],[-0.07483,51.3809],[-0.0748,51.38075],[-0.07343,51.3818],[-0.07257,51.38168],[-0.07236,51.3818],[-0.07233,51.38164],[-0.07154,51.38153],[-0.07145,51.3811],[-0.07077,51.38142],[-0.07068,51.381],[-0.07011,51.38088],[-0.06979,51.38104],[-0.06968,51.38112],[-0.07402,51.38233]]],[[[-0.06936,51.38103],[-0.06928,51.38071],[-0.06807,51.38045],[-0.06785,51.38059],[-0.06781,51.3804],[-0.06682,51.38019],[-0.06663,51.38027],[-0.06936,51.38103]]]]}},{"type":"Feature","properties":{"source_code":"H83023","codes":["H83023"],"label":"MORLAND ROAD SURGERY"},"geometry":{"type":"Polygon","coordinates":[[[-0.06795,51.38551],[-0.06796,51.38551],[-0.06795,51.38551],[-0.06794,51.38549],[-0.06787,51.3855],[-0.06795,51.38551],[-0.06795,51.38551],[-0.06371,51.38511],[-0.06521,51.38352],[-0.05722,51.38217],[-0.05624,51.3818],[-0.05553,51.38139],[-0.05445,51.38043],[-0.05284,51.38101],[-0.04979,51.38178],[-0.05009,51.38143],[-0.05022,51.38107],[-0.04983,51.38112],[-0.04942,51.38103],[-0.04919,51.38082],[-0.04912,51.38067],[-0.04944,51.38002],[-0.04924,51.37965],[-0.04857,51.37953],[-0.0481,51.37917],[-0.04864,51.37887],[-0.04932,51.37876],[-0.05012,51.37861],[-0.04962,51.37844],[-0.05083,51.37775],[-0.05284,51.37832],[-0.05244,51.37722],[-0.05178,51.3763],[-0.05113,51.37473],[-0.0562,51.37388],[-0.06449,51.37346],[-0.06449,51.37326],[-0.06454,51.37279],[-0.06471,51.37252],[-0.06469,51.37253],[-0.06473,51.3725],[-0.06478,51.37242],[-0.06487,51.3724],[-0.06639,51.37128],[-0.07358,51.36946],[-0.07905,51.36887],[-0.07399,51.37016],[-0.07896,51.36894],[-0.07499,51.37254],[-0.08336,51.36532],[-0.08362,51.36486],[-0.0835,51.36467],[-0.08349,51.36463],[-0.08463,51.3648],[-0.08343,51.36457],[-0.08506,51.36482],[-0.08629,51.36522],[-0.08787,51.3657],[-0.08746,51.3656],[-0.08546,51.36496],[-0.08699,51.36549],[-0.08801,51.36574],[-0.08787,51.3657],[-0.08916,51.36601],[-0.08903,51.36605],[-0.08896,51.36603],[-0.08857,51.36628],[-0.08785,51.36642],[-0.08726,51.36659],[-0.08692,51.3671],[-0.08628,51.36784],[-0.08603,51.36871],[-0.086,51.37003],[-0.08705,51.37215],[-0.08697,51.37265],[-0.08949,51.37299],[-0.08988,51.37334],[-0.0904,51.37462],[-0.09033,51.37525],[-0.09085,51.37545],[-0.09151,51.37632],[-0.09534,51.37704],[-0.09547,51.37766],[-0.09534,51.37856],[-0.0939,51.38145],[-0.09263,51.38477],[-0.08422,51.38648],[-0.08113,51.38806],[-0.07816,51.38974],[-0.07701,51.38899],[-0.07673,51.38861],[-0.07658,51.38822],[-0.07657,51.38745],[-0.07629,51.38694],[-0.07629,51.38656],[-0.07624,51.38629],[-0.07612,51.386],[-0.07598,51.3858],[-0.07552,51.3855],[-0.07456,51.38585],[-0.07295,51.38608],[-0.07239,51.38579],[-0.07172,51.38567],[-0.0717,51.38567],[-0.07175,51.38568],[-0.07032,51.38629],[-0.06952,51.38727],[-0.06791,51.3873],[-0.06497,51.38806],[-0.06816,51.3858],[-0.06802,51.38568],[-0.06795,51.38551]],[[-0.08456,51.3648],[-0.0845,51.36479],[-0.08443,51.36482],[-0.08527,51.3649],[-0.08512,51.36485],[-0.08456,51.3648]]]}},{"type":"Feature","properties":{"source_code":"H83631","codes":["H83631"],"label":"GREENSIDE GROUP PRACTICE"},"geometry":{"type":"Polygon","coordinates":[[[-0.11466,51.37719],[-0.1071,51.37551],[-0.1073,51.3758],[-0.10716,51.37553],[-0.11475,51.37723],[-0.11466,51.37719],[-0.12002,51.37839],[-0.11969,51.37567],[-0.119,51.37433],[-0.11759,51.37226],[-0.11729,51.37047],[-0.11913,51.36776],[-0.12322,51.381],[-0.12248,51.38033],[-0.12191,51.38024],[-0.12514,51.3872],[-0.12322,51.381],[-0.12673,51.38416],[-0.13033,51.38576],[-0.13248,51.39002],[-0.12732,51.38813],[-0.12252,51.39155],[-0.11922,51.39168],[-0.11862,51.3919],[-0.12222,51.39331],[-0.11484,51.39476],[-0.11385,51.39353],[-0.09862,51.39623],[-0.09351,51.39465],[-0.0966,51.38721],[-0.09806,51.38386],[-0.09974,51.37923],[-0.09634,51.37191],[-0.10677,51.37157],[-0.10682,51.37508],[-0.10709,51.37549],[-0.10832,51.3747],[-0.11466,51.37719]],[[-0.12067,51.38515],[-0.12085,51.38525],[-0.12002,51.3784],[-0.11996,51.37839],[-0.11999,51.3784],[-0.12067,51.38515]],[[-0.12523,51.3874],[-0.12616,51.3877],[-0.12521,51.38735],[-0.12523,51.3874]]]}},{"type":"Feature","properties":{"source_code":"H83012","codes":["H83012"],"label":"ST JAMES MEDICAL CENTRE"},"geometry":{"type":"MultiPolygon","coordinates":[[[[0.0,51.33522],[-0.00549,51.33361],[-0.01081,51.33399],[-0.02317,51.33962],[-0.02498,51.34407],[-0.023,51.34766],[-0.02269,51.34777],[-0.02549,51.35292],[-0.03236,51.35678],[-0.01863,51.35935],[-0.00429,51.35217],[-0.00399,51.34823],[0.0,51.33522]]],[[[-0.09836,51.38775],[-0.09626,51.38732],[-0.09569,51.38649],[-0.08356,51.38662],[-0.0812,51.38515],[-0.0769,51.38448],[-0.07368,51.3822],[-0.07128,51.38132],[-0.06862,51.37872],[-0.06836,51.37743],[-0.06802,51.37615],[-0.06871,51.37441],[-0.0727,51.37422],[-0.07472,51.37486],[-0.07656,51.37502],[-0.07866,51.37513],[-0.08077,51.37521],[-0.08171,51.37403],[-0.08304,51.37293],[-0.08913,51.37261],[-0.09634,51.37157],[-0.09664,51.37406],[-0.09828,51.37615],[-0.09862,51.37682],[-0.09913,51.37746],[-0.10016,51.37885],[-0.10012,51.37955],[-0.09986,51.38022],[-0.09927,51.3815],[-0.09922,51.38158],[-0.10536,51.38086],[-0.1063,51.38255],[-0.10446,51.38394],[-0.10132,51.38531],[-0.10184,51.38681],[-0.10111,51.38705],[-0.10132,51.38737],[-0.10119,51.38748],[-0.10111,51.38742],[-0.09836,51.38775]]]]}},{"type":"Feature","properties":{"source_code":"H83033","codes":["H83033"],"label":"ASHBURTON PARK MEDICAL CENTRE"},"geometry":{"type":"Polygon","coordinates":[[[-0.04553,51.37534],[-0.04741,51.37497],[-0.04839,51.37462],[-0.05004,51.37439],[-0.05164,51.37414],[-0.05484,51.37367],[-0.0558,51.3736],[-0.05615,51.37343],[-0.05658,51.37339],[-0.05684,51.37362],[-0.05718,51.37432],[-0.05826,51.37521],[-0.05914,51.37554],[-0.05983,51.37593],[-0.06014,51.37622],[-0.06311,51.37566],[-0.06488,51.37524],[-0.06454,51.37459],[-0.06442,51.37394],[-0.0644,51.37356],[-0.06437,51.37306],[-0.06461,51.37257],[-0.06509,51.37207],[-0.06595,51.37147],[-0.06635,51.37123],[-0.06701,51.37106],[-0.06734,51.371],[-0.06852,51.37074],[-0.06977,51.37036],[-0.07075,51.37011],[-0.07208,51.36977],[-0.07259,51.36958],[-0.07336,51.36947],[-0.07374,51.36939],[-0.07445,51.37071],[-0.07478,51.37203],[-0.07482,51.37334],[-0.0749,51.37387],[-0.07488,51.37434],[-0.07491,51.37463],[-0.07498,51.37471],[-0.07607,51.37484],[-0.07756,51.37493],[-0.07921,51.37498],[-0.08033,51.37495],[-0.08132,51.3749],[-0.08246,51.37499],[-0.08234,51.37712],[-0.08214,51.37925],[-0.08776,51.38046],[-0.08841,51.38049],[-0.08926,51.38067],[-0.09008,51.38086],[-0.09111,51.38108],[-0.09098,51.38129],[-0.09081,51.38153],[-0.09072,51.38185],[-0.09055,51.38231],[-0.09042,51.383],[-0.09004,51.38389],[-0.08982,51.38466],[-0.08939,51.38574],[-0.08858,51.38571],[-0.08549,51.38539],[-0.08364,51.38643],[-0.08197,51.38737],[-0.08055,51.38825],[-0.07935,51.38911],[-0.07858,51.38967],[-0.07763,51.3904],[-0.07656,51.39141],[-0.07545,51.39299],[-0.07489,51.39299],[-0.07433,51.39289],[-0.0736,51.39315],[-0.07321,51.39337],[-0.07274,51.3934],[-0.07244,51.39294],[-0.07223,51.39273],[-0.07188,51.39283],[-0.07111,51.39291],[-0.07021,51.39302],[-0.06961,51.39307],[-0.06828,51.39323],[-0.06751,51.39331],[-0.06678,51.39348],[-0.0666,51.39302],[-0.0663,51.39248],[-0.06566,51.39168],[-0.06527,51.39107],[-0.06506,51.39037],[-0.06502,51.38986],[-0.06557,51.38935],[-0.06515,51.38898],[-0.0648,51.38828],[-0.0645,51.38758],[-0.06407,51.38777],[-0.06304,51.38841],[-0.06133,51.38949],[-0.05909,51.39109],[-0.05785,51.39195],[-0.05334,51.39508],[-0.05274,51.39487],[-0.05184,51.39444],[-0.05154,51.3942],[-0.05158,51.3939],[-0.05163,51.39334],[-0.05111,51.39323],[-0.05077,51.39299],[-0.05034,51.39243],[-0.04927,51.3912],[-0.04888,51.39058],[-0.04862,51.38986],[-0.04879,51.38908],[-0.04854,51.38874],[-0.04686,51.38804],[-0.0457,51.38764],[-0.04493,51.38716],[-0.0448,51.3867],[-0.04433,51.38638],[-0.04412,51.38576],[-0.04369,51.38584],[-0.04283,51.38608],[-0.04184,51.38627],[-0.04133,51.3863],[-0.04034,51.38627],[-0.04038,51.38574],[-0.04047,51.38533],[-0.04068,51.38456],[-0.04073,51.38402],[-0.04098,51.38335],[-0.04107,51.38276],[-0.04124,51.38167],[-0.0415,51.38041],[-0.04189,51.38014],[-0.04227,51.37974],[-0.04304,51.37867],[-0.04364,51.37759],[-0.04433,51.37674],[-0.04553,51.37534]]]}},{"type":"Feature","properties":{"source_code":"H83034","codes":["H83034"],"label":"WHITEHORSE PRACTICE"},"geometry":{"type":"MultiPolygon","coordinates":[[[[-0.09544,51.37705],[-0.09549,51.37703],[-0.09533,51.37711],[-0.09544,51.37705]]],[[[-0.09544,51.37705],[-0.09433,51.37749],[-0.09553,51.377],[-0.09544,51.37705]]],[[[-0.09533,51.37711],[-0.09359,51.37806],[-0.0936,51.37797],[-0.09533,51.37711]]],[[[-0.09359,51.37806],[-0.09358,51.37832],[-0.09356,51.37808],[-0.09359,51.37806]]],[[[-0.09358,51.37832],[-0.09359,51.37857],[-0.09356,51.37856],[-0.09358,51.37832]]],[[[-0.10789,51.38314],[-0.11295,51.38086],[-0.11652,51.38306],[-0.11561,51.38568],[-0.11128,51.3871],[-0.11227,51.39064],[-0.1142,51.39329],[-0.10707,51.3961],[-0.10291,51.39776],[-0.09836,51.39894],[-0.0966,51.3987],[-0.0945,51.39859],[-0.0933,51.39779],[-0.09034,51.39856],[-0.08733,51.39913],[-0.08592,51.40004],[-0.08875,51.40124],[-0.0869,51.40271],[-0.08549,51.40317],[-0.08454,51.40253],[-0.07999,51.39875],[-0.07879,51.39757],[-0.08137,51.39682],[-0.08639,51.39406],[-0.08875,51.38962],[-0.08785,51.38949],[-0.08759,51.38793],[-0.08918,51.38737],[-0.08974,51.38424],[-0.09089,51.38126],[-0.09227,51.3814],[-0.0936,51.37867],[-0.09359,51.37857],[-0.09682,51.37928],[-0.09948,51.3785],[-0.10021,51.37826],[-0.10184,51.37912],[-0.1036,51.37917],[-0.10759,51.38303],[-0.10789,51.38314]]]]}},{"type":"Feature","properties":{"source_code":"H83008","codes":["H83008"],"label":"NORTHWAY ROAD SURGERY"},"geometry":{"type":"Polygon","coordinates":[[[-0.03845,51.42426],[-0.00257,51.40692],[0.0079,51.37714],[0.01425,51.33962],[0.04532,51.3098],[-0.05974,51.32053],[-0.11107,51.35453],[-0.15145,51.37497],[-0.13964,51.39241],[-0.12291,51.41806],[-0.11484,51.437],[-0.08823,51.43603],[-0.05853,51.4355],[-0.03845,51.42426]]]}},{"type":"Feature","properties":{"source_code":"H83051","codes":["H83051"],"label":"THORNTON ROAD & VALLEY PARK SURGERY"},"geometry":{"type":"Polygon","coordinates":[[[-0.10403,51.42083],[-0.05184,51.39771],[-0.06385,51.36406],[-0.12841,51.33876],[-0.15246,51.36278],[-0.16859,51.38335],[-0.13597,51.41591],[-0.10403,51.42083]]]}},{"type":"Feature","properties":{"source_code":"G84024","codes":["G84024"],"label":"BROMLEY COMMON PRACTICE"},"geometry":{"type":"Polygon","coordinates":[[[0.01734,51.37778],[0.00755,51.37853],[0.00378,51.38207],[0.00223,51.38667],[0.00017,51.39192],[0.0194,51.39942],[0.01888,51.40659],[0.02472,51.40702],[0.03313,51.4067],[0.03794,51.40467],[0.04326,51.40199],[0.04618,51.40156],[0.05545,51.40199],[0.05345,51.39042],[0.05592,51.37885],[0.06669,51.36717],[0.08652,51.35699],[0.07575,51.35927],[0.07105,51.35979],[0.06618,51.35924],[0.064,51.36077],[0.05847,51.36006],[0.05317,51.3597],[0.04667,51.35979],[0.04214,51.35962],[0.03365,51.3594],[0.03068,51.35913],[0.02867,51.36106],[0.02667,51.36346],[0.02553,51.36591],[0.02369,51.37033],[0.02283,51.37071],[0.01734,51.37778]]]}},{"type":"Feature","properties":{"source_code":"G84023","codes":["G84023"],"label":"SOUTHBOROUGH LANE SURGERY"},"geometry":{"type":"Polygon","coordinates":[[[0.02598,51.39545],[0.03588,51.40102],[0.03521,51.40544],[0.04471,51.4014],[0.05883,51.40494],[0.07995,51.39522],[0.07995,51.39077],[0.09143,51.38402],[0.08682,51.38142],[0.08022,51.3813],[0.07586,51.37363],[0.0522,51.36676],[0.02598,51.39545]]]}},{"type":"Feature","properties":{"source_code":"H83020","codes":["H83020"],"label":"EVERSLEY MEDICAL CENTRE"},"geometry":{"type":"MultiPolygon","coordinates":[[[[-0.09454,51.3963],[-0.09551,51.3968],[-0.09456,51.39671],[-0.09454,51.3963]]],[[[-0.09551,51.3968],[-0.096,51.39685],[-0.09453,51.39607],[-0.09454,51.3963],[-0.09258,51.39528],[-0.09018,51.39478],[-0.0909,51.39413],[-0.09052,51.39393],[-0.09147,51.39361],[-0.09395,51.39136],[-0.09567,51.38772],[-0.09579,51.38724],[-0.09559,51.38557],[-0.0964,51.38482],[-0.0967,51.38364],[-0.0995,51.38084],[-0.09974,51.38033],[-0.10035,51.37991],[-0.10253,51.377],[-0.10768,51.37421],[-0.10356,51.37421],[-0.10905,51.37122],[-0.11351,51.37229],[-0.11797,51.37529],[-0.11905,51.37596],[-0.11927,51.37593],[-0.11932,51.37613],[-0.1214,51.37743],[-0.12587,51.38022],[-0.12861,51.38236],[-0.1317,51.3845],[-0.13376,51.38643],[-0.13422,51.38683],[-0.13626,51.38732],[-0.13488,51.38983],[-0.13419,51.39033],[-0.13393,51.39072],[-0.13433,51.39093],[-0.13327,51.39169],[-0.13204,51.3935],[-0.12502,51.39857],[-0.12449,51.39928],[-0.12284,51.40031],[-0.12236,51.40078],[-0.12177,51.40092],[-0.12106,51.40143],[-0.11934,51.40166],[-0.11824,51.40228],[-0.11498,51.40266],[-0.11283,51.40314],[-0.10892,51.40456],[-0.10892,51.40456],[-0.10892,51.40456],[-0.10871,51.40464],[-0.10322,51.40143],[-0.1016,51.39996],[-0.09551,51.3968]]]]}},{"type":"Feature","properties":{"source_code":"H83011","codes":["H83011"],"label":"NORTH CROYDON MEDICAL CENTRE"},"geometry":{"type":"MultiPolygon","coordinates":[[[[-0.08786,51.36547],[-0.08795,51.36534],[-0.08787,51.36547],[-0.08786,51.36547]]],[[[-0.08773,51.36544],[-0.08786,51.36547],[-0.08785,51.36548],[-0.08773,51.36544]]],[[[-0.08773,51.36544],[-0.0877,51.36543],[-0.08767,51.36548],[-0.08514,51.3646],[-0.08773,51.36544]]],[[[-0.08782,51.36553],[-0.08785,51.36548],[-0.08786,51.36548],[-0.08783,51.36553],[-0.08782,51.36553]]],[[[-0.08779,51.36557],[-0.0878,51.36557],[-0.08777,51.36562],[-0.08775,51.36562],[-0.08779,51.36557]]],[[[-0.0878,51.36557],[-0.08783,51.36553],[-0.08819,51.36566],[-0.0878,51.36557]]],[[[-0.08777,51.36562],[-0.08855,51.36578],[-0.08901,51.36594],[-0.08834,51.36589],[-0.0875,51.36648],[-0.08675,51.36728],[-0.08777,51.36562]]],[[[-0.08674,51.36728],[-0.08675,51.36728],[-0.08673,51.36731],[-0.08674,51.36728]]],[[[-0.08767,51.36548],[-0.08782,51.36553],[-0.08779,51.36557],[-0.08769,51.36555],[-0.08674,51.36728],[-0.08622,51.36784],[-0.08612,51.36825],[-0.08605,51.36787],[-0.08767,51.36548]]],[[[-0.08612,51.36825],[-0.08612,51.36829],[-0.0861,51.36833],[-0.08612,51.36825]]],[[[-0.08612,51.36829],[-0.08673,51.36731],[-0.08614,51.36839],[-0.08612,51.36829]]],[[[-0.0861,51.36833],[-0.08604,51.36857],[-0.08593,51.36878],[-0.08593,51.3686],[-0.0861,51.36833]]],[[[-0.08593,51.36878],[-0.08592,51.36905],[-0.08584,51.36937],[-0.08573,51.36914],[-0.08593,51.36878]]],[[[-0.08584,51.36937],[-0.08591,51.36952],[-0.08591,51.36986],[-0.08583,51.36942],[-0.08584,51.36937]]],[[[-0.08591,51.36952],[-0.08592,51.36905],[-0.08604,51.36857],[-0.08614,51.36839],[-0.08659,51.37092],[-0.08591,51.36952]]],[[[-0.08591,51.36986],[-0.086,51.37039],[-0.08679,51.37204],[-0.08686,51.37242],[-0.0859,51.37027],[-0.08591,51.36986]]],[[[-0.0768,51.38366],[-0.07679,51.38367],[-0.07678,51.38365],[-0.0768,51.38366]]],[[[-0.0768,51.38366],[-0.07732,51.38355],[-0.07682,51.38373],[-0.07686,51.3837],[-0.0768,51.38366]]],[[[-0.07679,51.38367],[-0.07701,51.3842],[-0.07695,51.38385],[-0.07842,51.3833],[-0.07732,51.38355],[-0.08637,51.38026],[-0.08715,51.37985],[-0.08652,51.38022],[-0.0852,51.38077],[-0.08684,51.38016],[-0.08852,51.37914],[-0.08715,51.37985],[-0.08974,51.37834],[-0.09051,51.378],[-0.09095,51.37786],[-0.09107,51.3778],[-0.09125,51.37771],[-0.09124,51.37772],[-0.09137,51.37766],[-0.09137,51.37765],[-0.09125,51.37771],[-0.09135,51.37755],[-0.0913,51.37725],[-0.09088,51.37591],[-0.09052,51.37537],[-0.08988,51.37518],[-0.09045,51.37526],[-0.09042,51.37521],[-0.08982,51.37516],[-0.08988,51.37518],[-0.08967,51.37515],[-0.08854,51.37505],[-0.08727,51.37306],[-0.08701,51.37247],[-0.08699,51.37245],[-0.08694,51.37235],[-0.08691,51.37238],[-0.08694,51.37234],[-0.08679,51.37204],[-0.08659,51.37092],[-0.08716,51.37208],[-0.0918,51.36643],[-0.08855,51.36578],[-0.08819,51.36566],[-0.0918,51.36643],[-0.09185,51.36637],[-0.08811,51.36556],[-0.08786,51.36548],[-0.08787,51.36547],[-0.09185,51.36636],[-0.0919,51.36631],[-0.09385,51.36688],[-0.09589,51.36709],[-0.09735,51.36728],[-0.10096,51.36769],[-0.10257,51.36803],[-0.10409,51.36827],[-0.10467,51.36886],[-0.10585,51.37005],[-0.1069,51.37135],[-0.10722,51.37212],[-0.10973,51.37174],[-0.11076,51.37179],[-0.1124,51.37173],[-0.11735,51.37122],[-0.11767,51.37254],[-0.11888,51.37407],[-0.1201,51.37655],[-0.12068,51.37802],[-0.12115,51.37846],[-0.12143,51.379],[-0.12087,51.37976],[-0.12074,51.38034],[-0.12089,51.38156],[-0.1213,51.38444],[-0.12139,51.38507],[-0.12151,51.38555],[-0.1272,51.3878],[-0.13441,51.39077],[-0.13023,51.39392],[-0.12926,51.39451],[-0.1278,51.39554],[-0.12591,51.39702],[-0.12486,51.39783],[-0.12454,51.39799],[-0.12023,51.40012],[-0.11885,51.4008],[-0.11827,51.40095],[-0.11868,51.40171],[-0.11941,51.40344],[-0.11516,51.40431],[-0.11411,51.40453],[-0.11199,51.40594],[-0.10763,51.40302],[-0.10319,51.39994],[-0.10235,51.39918],[-0.10147,51.39821],[-0.09892,51.39884],[-0.0983,51.39907],[-0.09744,51.39886],[-0.09559,51.39875],[-0.09431,51.3985],[-0.09283,51.39764],[-0.0921,51.39805],[-0.09102,51.39828],[-0.08776,51.39906],[-0.08656,51.39933],[-0.08562,51.40005],[-0.08379,51.40207],[-0.08145,51.40444],[-0.07963,51.40263],[-0.0759,51.4003],[-0.07439,51.3995],[-0.07613,51.39842],[-0.07869,51.39748],[-0.0816,51.3966],[-0.07987,51.39425],[-0.07918,51.39369],[-0.07506,51.39298],[-0.07555,51.39232],[-0.07731,51.3903],[-0.07886,51.38918],[-0.08057,51.38795],[-0.07905,51.38678],[-0.07776,51.38594],[-0.07742,51.38533],[-0.0771,51.38473],[-0.07701,51.38423],[-0.07678,51.38367],[-0.07679,51.38367]]],[[[-0.09115,51.37633],[-0.09091,51.37596],[-0.0912,51.37664],[-0.09115,51.37633]]]]}},{"type":"Feature","properties":{"source_code":"H83021","codes":["H83021"],"label":"LONDON ROAD MEDICAL PRACTICE"},"geometry":{"type":"MultiPolygon","coordinates":[[[[-0.11828,51.40283],[-0.11845,51.40306],[-0.1174,51.40308],[-0.11828,51.40283]]],[[[-0.09686,51.40342],[-0.1174,51.40308],[-0.11518,51.4037],[-0.09682,51.40349],[-0.09686,51.40342]]],[[[-0.12737,51.40028],[-0.11828,51.40283],[-0.10643,51.38635],[-0.09686,51.40342],[-0.09235,51.40349],[-0.08961,51.37907],[-0.11089,51.37157],[-0.12634,51.38121],[-0.12737,51.40028]]]]}},{"type":"Feature","properties":{"source_code":"Y05317","codes":["Y05317"],"label":"COUNTRY PARK PRACTICE"},"geometry":{"type":"Polygon","coordinates":[[[-0.08528,51.40711],[-0.07293,51.40813],[-0.05646,51.40364],[-0.05148,51.39453],[-0.04273,51.38982],[-0.03586,51.38843],[-0.03655,51.37739],[-0.02917,51.37707],[-0.03123,51.36775],[-0.03895,51.36764],[-0.03947,51.36968],[-0.04341,51.36892],[-0.05422,51.37],[-0.06057,51.37546],[-0.06812,51.36957],[-0.08237,51.36785],[-0.087,51.3686],[-0.08786,51.37289],[-0.0918,51.37514],[-0.09077,51.38125],[-0.08957,51.38596],[-0.08974,51.39207],[-0.08768,51.39282],[-0.08528,51.39485],[-0.08322,51.39635],[-0.08082,51.39732],[-0.08442,51.40578],[-0.08528,51.40711]]]}},{"type":"Feature","properties":{"source_code":"Y05318","codes":["Y05318"],"label":"DENMARK ROAD SURGERY"},"geometry":{"type":"Polygon","coordinates":[[[-0.07716,51.41511],[-0.07656,51.41511],[-0.04317,51.40472],[-0.04249,51.38405],[-0.06777,51.37416],[-0.09956,51.38153],[-0.09888,51.39824],[-0.07716,51.41511]]]}},{"type":"Feature","properties":{"source_code":"H83001","codes":["H83001"],"label":"PORTLAND MEDICAL CENTRE"},"geometry":{"type":"Polygon","coordinates":[[[-0.05545,51.3706],[-0.08085,51.3706],[-0.08274,51.37971],[-0.08944,51.3811],[-0.09471,51.38951],[-0.09175,51.39621],[-0.08858,51.41131],[-0.07351,51.40643],[-0.06534,51.40269],[-0.05897,51.3991],[-0.05328,51.39594],[-0.04898,51.39053],[-0.04378,51.38515],[-0.04201,51.37976],[-0.04581,51.37427],[-0.05545,51.3706]]]}},{"type":"Feature","properties":{"source_code":"H83017","codes":["H83017"],"label":"BRIGSTOCK MEDICAL PRACTICE"},"geometry":{"type":"Polygon","coordinates":[[[-0.12458,51.41556],[-0.11547,51.41794],[-0.1037,51.4188],[-0.10204,51.41854],[-0.10029,51.418],[-0.09339,51.41512],[-0.09177,51.41361],[-0.08852,51.41268],[-0.08699,51.41028],[-0.08649,51.40841],[-0.08521,51.40702],[-0.08218,51.40491],[-0.07915,51.40219],[-0.08015,51.39952],[-0.08123,51.39686],[-0.08461,51.39515],[-0.08672,51.39371],[-0.08743,51.39299],[-0.08771,51.39211],[-0.08836,51.39056],[-0.08774,51.38946],[-0.08631,51.38039],[-0.08714,51.37259],[-0.09615,51.37143],[-0.09684,51.36948],[-0.09632,51.36726],[-0.1004,51.36774],[-0.10447,51.36858],[-0.10617,51.37073],[-0.10685,51.37362],[-0.10768,51.37663],[-0.11101,51.37968],[-0.11576,51.3826],[-0.12114,51.3854],[-0.12077,51.39072],[-0.12862,51.40737],[-0.12742,51.41291],[-0.12458,51.41556]]]}},{"type":"Feature","properties":{"source_code":"H83608","codes":["H83608"],"label":"YOUR FAMILY PRACTICE"},"geometry":{"type":"Polygon","coordinates":[[[-0.11295,51.38083],[-0.11879,51.3844],[-0.1248,51.38699],[-0.1343,51.39086],[-0.13015,51.39399],[-0.12934,51.39438],[-0.12464,51.39794],[-0.12898,51.3992],[-0.13342,51.40019],[-0.13588,51.40314],[-0.13937,51.40608],[-0.13444,51.40876],[-0.12227,51.40919],[-0.12453,51.41365],[-0.12417,51.41458],[-0.12448,51.41547],[-0.12261,51.41496],[-0.11715,51.41501],[-0.11593,51.41474],[-0.11267,51.41773],[-0.11233,51.41837],[-0.11087,51.41932],[-0.10933,51.41988],[-0.10668,51.42005],[-0.1066,51.41958],[-0.10586,51.41917],[-0.10177,51.41847],[-0.09948,51.41778],[-0.09727,51.41651],[-0.09344,51.41522],[-0.09228,51.41375],[-0.09148,51.4135],[-0.0884,51.41254],[-0.0869,51.41027],[-0.0864,51.40826],[-0.08566,51.40747],[-0.08443,51.40632],[-0.08215,51.40493],[-0.08145,51.40429],[-0.08562,51.3999],[-0.08668,51.39925],[-0.08767,51.39908],[-0.09216,51.39793],[-0.09295,51.39757],[-0.09227,51.39637],[-0.09373,51.39417],[-0.0939,51.39257],[-0.09862,51.38276],[-0.10463,51.38389],[-0.10746,51.38314],[-0.11295,51.38083]]]}},{"type":"Feature","properties":{"source_code":"H83022","codes":["H83022"],"label":"THORNTON HEATH MEDICAL CENTRE"},"geometry":{"type":"Polygon","coordinates":[[[-0.10604,51.41904],[-0.10128,51.41827],[-0.09604,51.41612],[-0.09361,51.41525],[-0.09203,51.41369],[-0.08845,51.41238],[-0.08716,51.40997],[-0.08635,51.40788],[-0.0824,51.40477],[-0.07811,51.40148],[-0.07476,51.39937],[-0.07842,51.39772],[-0.08353,51.39586],[-0.08719,51.39303],[-0.08871,51.38962],[-0.10712,51.38271],[-0.11021,51.38539],[-0.11192,51.38914],[-0.11639,51.39878],[-0.12154,51.40713],[-0.12342,51.41132],[-0.12428,51.4132],[-0.12445,51.41551],[-0.1219,51.41491],[-0.12002,51.41761],[-0.11896,51.41869],[-0.11772,51.41924],[-0.11549,51.41764],[-0.11343,51.41663],[-0.11199,51.41802],[-0.11154,51.41785],[-0.10982,51.41782],[-0.10935,51.4175],[-0.10845,51.41725],[-0.10604,51.41904]]]}},{"type":"Feature","properties":{"source_code":"H83042","codes":["H83042"],"label":"LEANDER FAMILY PRACTICE"},"geometry":{"type":"Polygon","coordinates":[[[-0.12205,51.41623],[-0.12055,51.41763],[-0.11948,51.41914],[-0.11348,51.42388],[-0.10949,51.42355],[-0.1037,51.42013],[-0.09294,51.41744],[-0.09306,51.41444],[-0.08725,51.41294],[-0.08143,51.40382],[-0.07501,51.39948],[-0.08283,51.39599],[-0.0918,51.38788],[-0.10128,51.38475],[-0.11175,51.3788],[-0.12102,51.38261],[-0.12853,51.38837],[-0.12469,51.39787],[-0.13132,51.404],[-0.13902,51.40607],[-0.13458,51.40902],[-0.12763,51.41179],[-0.12506,51.41366],[-0.12355,51.41497],[-0.12205,51.41623]]]}},{"type":"Feature","properties":{"source_code":"G84028","codes":["G84028"],"label":"ST JAMES' PRACTICE"},"geometry":{"type":"Polygon","coordinates":[[[-0.04797,51.3976],[-0.04756,51.3983],[-0.05016,51.39925],[-0.0525,51.40099],[-0.05256,51.40102],[-0.05614,51.40451],[-0.05608,51.40451],[-0.05975,51.40866],[-0.05861,51.40918],[-0.05312,51.41289],[-0.05157,51.41406],[-0.05104,51.41316],[-0.04804,51.41148],[-0.04508,51.40987],[-0.03928,51.40874],[-0.03201,51.40732],[-0.03193,51.40739],[-0.03015,51.4109],[-0.02886,51.41123],[-0.02875,51.4112],[-0.02511,51.41043],[-0.02524,51.41162],[-0.02436,51.413],[-0.0224,51.4153],[-0.01434,51.41494],[-0.0149,51.41294],[-0.01606,51.40944],[-0.0134,51.40914],[-0.00527,51.40822],[-0.00533,51.40818],[-0.00344,51.40768],[-0.00213,51.407],[-0.00286,51.40566],[-0.00503,51.40616],[-0.00582,51.40608],[-0.00555,51.40564],[-0.00557,51.4055],[-0.00576,51.40513],[-0.00143,51.40312],[-0.00291,51.40249],[-0.00407,51.40142],[-0.00576,51.40007],[-0.00597,51.39999],[-0.00445,51.39945],[-0.00222,51.39922],[-0.00173,51.39913],[-0.00065,51.39798],[0.00128,51.39576],[0.0031,51.39562],[0.00518,51.3939],[0.00529,51.3938],[0.00501,51.39368],[0.00269,51.39286],[0.00022,51.39197],[0.00258,51.38878],[0.00276,51.38373],[0.00278,51.38371],[0.00344,51.38286],[-0.00078,51.38067],[-0.00657,51.3788],[-0.01016,51.38004],[-0.01301,51.38105],[-0.01475,51.37963],[-0.0149,51.37955],[-0.01606,51.37949],[-0.01571,51.37813],[-0.0161,51.37705],[-0.01696,51.3762],[-0.01936,51.37683],[-0.01889,51.37811],[-0.0191,51.37962],[-0.02369,51.37972],[-0.02333,51.38008],[-0.02339,51.38104],[-0.02436,51.38105],[-0.02453,51.38096],[-0.02483,51.37998],[-0.02425,51.37953],[-0.02412,51.37941],[-0.02451,51.37787],[-0.02463,51.3778],[-0.02614,51.37741],[-0.02704,51.37974],[-0.02785,51.37966],[-0.02702,51.38174],[-0.0245,51.38637],[-0.02438,51.38636],[-0.02448,51.3864],[-0.0245,51.38637],[-0.02603,51.38659],[-0.02871,51.38965],[-0.03233,51.39052],[-0.03716,51.39194],[-0.03695,51.39092],[-0.03958,51.39075],[-0.03922,51.38981],[-0.03952,51.38862],[-0.03995,51.3882],[-0.04087,51.38411],[-0.04171,51.38049],[-0.04201,51.38052],[-0.0431,51.38282],[-0.04293,51.38304],[-0.04235,51.38344],[-0.0425,51.38403],[-0.04293,51.38432],[-0.04387,51.38474],[-0.04542,51.38729],[-0.04741,51.38806],[-0.04898,51.38878],[-0.049,51.38911],[-0.04883,51.38979],[-0.04919,51.39072],[-0.05029,51.39206],[-0.05119,51.39311],[-0.05198,51.39347],[-0.0519,51.39434],[-0.05029,51.39544],[-0.04932,51.39661],[-0.04934,51.39656],[-0.04821,51.39702],[-0.04797,51.3976]]]}},{"type":"Feature","properties":{"source_code":"G84011","codes":["G84011"],"label":"EDEN PARK SURGERY"},"geometry":{"type":"Polygon","coordinates":[[[-0.05588,51.4037],[-0.0442,51.40908],[-0.03534,51.41199],[-0.03528,51.41372],[-0.03475,51.41381],[-0.03237,51.41242],[-0.03061,51.41153],[-0.02786,51.41123],[-0.02485,51.41024],[-0.02506,51.40784],[-0.02454,51.40622],[-0.02442,51.40378],[-0.02372,51.40174],[-0.0221,51.39972],[-0.01854,51.39933],[-0.01852,51.39907],[-0.02141,51.39788],[-0.02446,51.39492],[-0.02704,51.39163],[-0.02714,51.39085],[-0.02622,51.38967],[-0.02652,51.38943],[-0.02442,51.38631],[-0.02594,51.38614],[-0.0321,51.38823],[-0.04131,51.38911],[-0.04239,51.38916],[-0.04344,51.38935],[-0.04528,51.39078],[-0.04712,51.39246],[-0.04858,51.39336],[-0.05066,51.39326],[-0.05179,51.39382],[-0.05194,51.39475],[-0.0508,51.39548],[-0.05018,51.39643],[-0.04991,51.39851],[-0.05588,51.4037]]]}},{"type":"Feature","properties":{"source_code":"G84002","codes":["G84002"],"label":"DYSART SURGERY"},"geometry":{"type":"MultiPolygon","coordinates":[[[[0.04544,51.39006],[0.04549,51.39007],[0.04553,51.39007],[0.04544,51.39006]]],[[[0.04544,51.39006],[0.04236,51.38916],[0.03739,51.3887],[0.03648,51.38852],[0.03601,51.38844],[0.03523,51.38959],[0.02588,51.39511],[0.0212,51.39385],[0.01781,51.39203],[0.01755,51.38828],[0.00978,51.38835],[0.00612,51.3885],[0.00702,51.3886],[0.0047,51.38856],[0.00612,51.3885],[0.00273,51.38813],[0.00101,51.39105],[-0.00013,51.39244],[-0.00013,51.39248],[-0.00451,51.3969],[-0.00863,51.39921],[-0.00768,51.40148],[-0.00549,51.40552],[-0.00631,51.407],[-0.00378,51.40761],[-0.00189,51.40676],[0.00245,51.40638],[0.00579,51.40726],[0.00815,51.40673],[0.00957,51.40692],[0.0087,51.40588],[0.01052,51.40704],[0.00957,51.40692],[0.01112,51.40875],[0.0109,51.40887],[0.01348,51.40916],[0.01761,51.40757],[0.01863,51.40663],[0.01901,51.40659],[0.0192,51.40646],[0.02242,51.40706],[0.02621,51.407],[0.0338,51.40611],[0.03566,51.40526],[0.04472,51.40156],[0.04588,51.39894],[0.04459,51.38997],[0.03927,51.39295],[0.04377,51.38999],[0.03915,51.38906],[0.04544,51.39006]]],[[[-0.00011,51.39266],[0.00018,51.39583],[-0.00082,51.39465],[-0.00011,51.39266]]],[[[0.01416,51.40704],[0.01118,51.40871],[0.01156,51.40729],[0.01416,51.40704]]]]}},{"type":"Feature","properties":{"source_code":"H85029","codes":["H85029"],"label":"WIDE WAY MEDICAL CENTRE"},"geometry":{"type":"Polygon","coordinates":[[[-0.15926,51.39929],[-0.15652,51.40485],[-0.15465,51.40757],[-0.15237,51.41026],[-0.14893,51.41297],[-0.14752,51.41417],[-0.14582,51.41519],[-0.1405,51.4188],[-0.13769,51.41699],[-0.13645,51.41778],[-0.13372,51.4161],[-0.12784,51.41281],[-0.12394,51.41179],[-0.12274,51.41037],[-0.12188,51.40811],[-0.12068,51.40585],[-0.11421,51.40613],[-0.10561,51.3995],[-0.11534,51.39599],[-0.11703,51.39906],[-0.11958,51.40384],[-0.11809,51.40099],[-0.11703,51.39906],[-0.11538,51.39597],[-0.11534,51.39599],[-0.11533,51.39597],[-0.11875,51.39571],[-0.12008,51.39464],[-0.1207,51.39423],[-0.12074,51.39419],[-0.12139,51.39481],[-0.12695,51.39505],[-0.12852,51.39461],[-0.12965,51.39366],[-0.13617,51.39506],[-0.14248,51.39722],[-0.14385,51.39674],[-0.15926,51.39929]]]}},{"type":"Feature","properties":{"source_code":"H83053","codes":["H83053"],"label":"PARCHMORE MEDICAL CENTRE"},"geometry":{"type":"Polygon","coordinates":[[[-0.1066,51.41955],[-0.10265,51.41891],[-0.0963,51.41645],[-0.09235,51.41377],[-0.08858,51.41302],[-0.08566,51.40713],[-0.07457,51.39969],[-0.0745,51.39966],[-0.07451,51.39965],[-0.07433,51.39953],[-0.07455,51.39963],[-0.07639,51.39846],[-0.08244,51.39655],[-0.08656,51.39401],[-0.08763,51.39257],[-0.08883,51.38951],[-0.09386,51.38807],[-0.10424,51.38394],[-0.10755,51.38303],[-0.11068,51.38643],[-0.11248,51.39085],[-0.11433,51.39382],[-0.1166,51.39248],[-0.1175,51.39318],[-0.11845,51.39473],[-0.11965,51.39527],[-0.12237,51.39695],[-0.12372,51.39821],[-0.13072,51.40408],[-0.13201,51.40882],[-0.129,51.40983],[-0.12802,51.41082],[-0.12444,51.41452],[-0.12428,51.4173],[-0.12634,51.41773],[-0.12042,51.41962],[-0.1296,51.42362],[-0.12027,51.41967],[-0.11999,51.41976],[-0.12011,51.4196],[-0.11999,51.41955],[-0.11956,51.4234],[-0.11604,51.42362],[-0.10609,51.42308],[-0.1066,51.41955]],[[-0.12017,51.41951],[-0.12179,51.41725],[-0.11977,51.41934],[-0.12017,51.41951]]]}},{"type":"Feature","properties":{"source_code":"H83010","codes":["H83010"],"label":"SOUTH NORWOOD HILL MEDICAL CENTRE"},"geometry":{"type":"Polygon","coordinates":[[[-0.07811,51.41974],[-0.07417,51.41774],[-0.07109,51.4148],[-0.07028,51.41129],[-0.06768,51.40871],[-0.06494,51.40597],[-0.06211,51.40374],[-0.05461,51.39074],[-0.06284,51.38618],[-0.07499,51.38487],[-0.07725,51.38396],[-0.07862,51.38496],[-0.07957,51.38634],[-0.08416,51.38357],[-0.08577,51.38215],[-0.08652,51.38057],[-0.1045,51.38386],[-0.10713,51.38874],[-0.10409,51.39334],[-0.10589,51.39625],[-0.10613,51.39657],[-0.10083,51.39843],[-0.10287,51.40076],[-0.10202,51.40224],[-0.10119,51.4031],[-0.10259,51.4046],[-0.10506,51.40747],[-0.09897,51.40861],[-0.10117,51.41397],[-0.09995,51.42241],[-0.09623,51.42252],[-0.09117,51.42141],[-0.08654,51.41907],[-0.08201,51.41951],[-0.07811,51.41974]]]}},{"type":"Feature","properties":{"source_code":"H83609","codes":["H83609"],"label":"MERSHAM MEDICAL CENTRE"},"geometry":{"type":"Polygon","coordinates":[[[-0.09253,51.42169],[-0.08652,51.41088],[-0.07879,51.41173],[-0.06386,51.40638],[-0.0899,51.4102],[-0.06626,51.40649],[-0.09579,51.38461],[-0.08905,51.38951],[-0.08613,51.38649],[-0.08647,51.38613],[-0.08617,51.38643],[-0.08049,51.38505],[-0.08858,51.38967],[-0.07484,51.3991],[-0.0654,51.39171],[-0.063,51.38528],[-0.06506,51.38389],[-0.07179,51.38076],[-0.07175,51.38073],[-0.07656,51.37877],[-0.0854,51.38016],[-0.08592,51.37264],[-0.08618,51.37261],[-0.09004,51.35522],[-0.09421,51.364],[-0.09021,51.35517],[-0.09617,51.35721],[-0.09124,51.35527],[-0.09047,51.35522],[-0.10132,51.34967],[-0.10712,51.35088],[-0.10566,51.35801],[-0.10624,51.36246],[-0.11793,51.36465],[-0.10403,51.36792],[-0.10332,51.36676],[-0.10403,51.36798],[-0.09864,51.37001],[-0.1039,51.36816],[-0.10845,51.36958],[-0.11776,51.3721],[-0.10587,51.37832],[-0.10079,51.38125],[-0.1181,51.37221],[-0.12257,51.38957],[-0.11639,51.39706],[-0.12531,51.41484],[-0.12249,51.41497],[-0.12377,51.41516],[-0.10643,51.4203],[-0.1066,51.42244],[-0.09253,51.42169]],[[-0.09841,51.38267],[-0.0987,51.38246],[-0.09845,51.3826],[-0.09313,51.38164],[-0.09841,51.38267]],[[-0.09067,51.38118],[-0.08575,51.38019],[-0.0857,51.38025],[-0.08552,51.38021],[-0.08546,51.38024],[-0.09094,51.38128],[-0.09098,51.38124],[-0.09067,51.38118]],[[-0.08575,51.38019],[-0.08931,51.38089],[-0.08579,51.38015],[-0.08575,51.38019]],[[-0.0933,51.37188],[-0.0957,51.36728],[-0.09559,51.36703],[-0.09319,51.37192],[-0.0933,51.37188]],[[-0.10129,51.36324],[-0.10301,51.36293],[-0.10121,51.36312],[-0.10129,51.36324]]]}},{"type":"Feature","properties":{"source_code":"H83009","codes":["H83009"],"label":"NORBURY MEDICAL PRACTICE"},"geometry":{"type":"Polygon","coordinates":[[[-0.12514,51.42287],[-0.11596,51.4234],[-0.10609,51.42265],[-0.10643,51.41979],[-0.09622,51.41616],[-0.08755,51.41115],[-0.0912,51.40357],[-0.09336,51.3985],[-0.09871,51.39888],[-0.10877,51.39559],[-0.11823,51.39176],[-0.12179,51.39356],[-0.12433,51.39783],[-0.13321,51.40009],[-0.14282,51.40884],[-0.13604,51.41789],[-0.1293,51.42156],[-0.12514,51.42287]]]}}]}